{"type": "FeatureCollection", "features": [{"type": "Feature", "properties": {"norad_id": 25590, "name": "COSMOS 2361", "group": "musson", "lat": 77.01978754486596, "lon": 15.009018348606645, "alt_km": 1002.9637173386072, "timestamp": "2025-12-14T22:38:41.027762+00:00", "meta": {"OBJECT_NAME": "COSMOS 2361", "OBJECT_ID": "1998-076A", "EPOCH": "2025-12-14T06:34:20.048160", "MEAN_MOTION": 13.73217646, "ECCENTRICITY": 0.00300643, "INCLINATION": 82.9341, "RA_OF_ASC_NODE": 342.9517, "ARG_OF_PERICENTER": 261.1582, "MEAN_ANOMALY": 109.1541, "EPHEMERIS_TYPE": 0, "CLASSIFICATION_TYPE": "U", "NORAD_CAT_ID": 25590, "ELEMENT_SET_NO": 999, "REV_AT_EPOCH": 35132, "BSTAR": 8.2511134e-05, "MEAN_MOTION_DOT": 9.1e-07, "MEAN_MOTION_DDOT": 0}, "tle": {"line1": "1 25590U 98076A   25348.27384315  .00000091  00000+0  82511-4 0  9996", "line2": "2 25590  82.9341 342.9517 0030064 261.1582 109.1541 13.73217646351324"}}, "geometry": {"type": "Point", "coordinates": [15.009018348606645, 77.01978754486596]}}, {"type": "Feature", "properties": {"norad_id": 26818, "name": "COSMOS 2378", "group": "musson", "lat": 20.90533753982816, "lon": 175.37288754574416, "alt_km": 966.1847913268939, "timestamp": "2025-12-14T22:38:41.027783+00:00", "meta": {"OBJECT_NAME": "COSMOS 2378", "OBJECT_ID": "2001-023A", "EPOCH": "2025-12-14T07:57:15.022368", "MEAN_MOTION": 13.74142101, "ECCENTRICITY": 0.00325005, "INCLINATION": 82.9273, "RA_OF_ASC_NODE": 358.5446, "ARG_OF_PERICENTER": 200.3968, "MEAN_ANOMALY": 172.3316, "EPHEMERIS_TYPE": 0, "CLASSIFICATION_TYPE": "U", "NORAD_CAT_ID": 26818, "ELEMENT_SET_NO": 999, "REV_AT_EPOCH": 22945, "BSTAR": 5.9573531e-05, "MEAN_MOTION_DOT": 7.1e-07, "MEAN_MOTION_DDOT": 0}, "tle": {"line1": "1 26818U 01023A   25348.33142387  .00000071  00000+0  59574-4 0  9995", "line2": "2 26818  82.9273 358.5446 0032500 200.3968 172.3316 13.74142101229450"}}, "geometry": {"type": "Point", "coordinates": [175.37288754574416, 20.90533753982816]}}, {"type": "Feature", "properties": {"norad_id": 27436, "name": "COSMOS 2389", "group": "musson", "lat": 13.42844263665454, "lon": -52.95379807741533, "alt_km": 955.6508229946085, "timestamp": "2025-12-14T22:38:41.027797+00:00", "meta": {"OBJECT_NAME": "COSMOS 2389", "OBJECT_ID": "2002-026A", "EPOCH": "2025-12-14T07:40:21.284256", "MEAN_MOTION": 13.75154853, "ECCENTRICITY": 0.0047575, "INCLINATION": 82.9504, "RA_OF_ASC_NODE": 305.8149, "ARG_OF_PERICENTER": 56.4524, "MEAN_ANOMALY": 110.9348, "EPHEMERIS_TYPE": 0, "CLASSIFICATION_TYPE": "U", "NORAD_CAT_ID": 27436, "ELEMENT_SET_NO": 999, "REV_AT_EPOCH": 18170, "BSTAR": 7.5158673e-05, "MEAN_MOTION_DOT": 8.8e-07, "MEAN_MOTION_DDOT": 0}, "tle": {"line1": "1 27436U 02026A   25348.31969079  .00000088  00000+0  75159-4 0  9994", "line2": "2 27436  82.9504 305.8149 0047575  56.4524 110.9348 13.75154853181701"}}, "geometry": {"type": "Point", "coordinates": [-52.95379807741533, 13.42844263665454]}}, {"type": "Feature", "properties": {"norad_id": 27818, "name": "COSMOS 2398", "group": "musson", "lat": -54.83358942513675, "lon": -99.04374096114496, "alt_km": 1020.7907019928907, "timestamp": "2025-12-14T22:38:41.027808+00:00", "meta": {"OBJECT_NAME": "COSMOS 2398", "OBJECT_ID": "2003-023A", "EPOCH": "2025-12-14T07:44:20.469696", "MEAN_MOTION": 13.72385914, "ECCENTRICITY": 0.00326206, "INCLINATION": 82.9485, "RA_OF_ASC_NODE": 271.5319, "ARG_OF_PERICENTER": 107.542, "MEAN_ANOMALY": 10.4576, "EPHEMERIS_TYPE": 0, "CLASSIFICATION_TYPE": "U", "NORAD_CAT_ID": 27818, "ELEMENT_SET_NO": 999, "REV_AT_EPOCH": 12838, "BSTAR": 5.5731544e-05, "MEAN_MOTION_DOT": 6.7e-07, "MEAN_MOTION_DDOT": 0}, "tle": {"line1": "1 27818U 03023A   25348.32245914  .00000067  00000+0  55732-4 0  9994", "line2": "2 27818  82.9485 271.5319 0032620 107.5420  10.4576 13.72385914128382"}}, "geometry": {"type": "Point", "coordinates": [-99.04374096114496, -54.83358942513675]}}, {"type": "Feature", "properties": {"norad_id": 28380, "name": "COSMOS 2407", "group": "musson", "lat": 7.857918685712702, "lon": 30.28400109595733, "alt_km": 994.9356975880391, "timestamp": "2025-12-14T22:38:41.027819+00:00", "meta": {"OBJECT_NAME": "COSMOS 2407", "OBJECT_ID": "2004-028A", "EPOCH": "2025-12-14T08:41:50.910720", "MEAN_MOTION": 13.76313877, "ECCENTRICITY": 0.00402788, "INCLINATION": 82.9605, "RA_OF_ASC_NODE": 211.6914, "ARG_OF_PERICENTER": 50.436, "MEAN_ANOMALY": 123.4015, "EPHEMERIS_TYPE": 0, "CLASSIFICATION_TYPE": "U", "NORAD_CAT_ID": 28380, "ELEMENT_SET_NO": 999, "REV_AT_EPOCH": 7445, "BSTAR": 7.1852042e-05, "MEAN_MOTION_DOT": 8.6e-07, "MEAN_MOTION_DDOT": 0}, "tle": {"line1": "1 28380U 04028A   25348.36239480  .00000086  00000+0  71852-4 0  9992", "line2": "2 28380  82.9605 211.6914 0040278  50.4360 123.4015 13.76313877 74458"}}, "geometry": {"type": "Point", "coordinates": [30.28400109595733, 7.857918685712702]}}, {"type": "Feature", "properties": {"norad_id": 28521, "name": "COSMOS 2414", "group": "musson", "lat": 12.675168366522078, "lon": 1.3983628133112482, "alt_km": 912.1419195463095, "timestamp": "2025-12-14T22:38:41.027830+00:00", "meta": {"OBJECT_NAME": "COSMOS 2414", "OBJECT_ID": "2005-002A", "EPOCH": "2025-12-13T23:21:07.664832", "MEAN_MOTION": 13.87903085, "ECCENTRICITY": 0.00409627, "INCLINATION": 82.949, "RA_OF_ASC_NODE": 183.7274, "ARG_OF_PERICENTER": 136.2149, "MEAN_ANOMALY": 224.2275, "EPHEMERIS_TYPE": 0, "CLASSIFICATION_TYPE": "U", "NORAD_CAT_ID": 28521, "ELEMENT_SET_NO": 999, "REV_AT_EPOCH": 5812, "BSTAR": 7.7347599e-05, "MEAN_MOTION_DOT": 1.09e-06, "MEAN_MOTION_DDOT": 0}, "tle": {"line1": "1 28521U 05002A   25347.97300538  .00000109  00000+0  77348-4 0  9993", "line2": "2 28521  82.9490 183.7274 0040962 136.2149 224.2275 13.87903085 58125"}}, "geometry": {"type": "Point", "coordinates": [1.3983628133112482, 12.675168366522078]}}, {"type": "Feature", "properties": {"norad_id": 32052, "name": "COSMOS 2429", "group": "musson", "lat": -19.857325322485643, "lon": 164.23446462976784, "alt_km": 1014.4360301898187, "timestamp": "2025-12-14T22:38:41.027840+00:00", "meta": {"OBJECT_NAME": "COSMOS 2429", "OBJECT_ID": "2007-038A", "EPOCH": "2025-12-14T07:42:26.197056", "MEAN_MOTION": 13.75149525, "ECCENTRICITY": 0.00391574, "INCLINATION": 82.9804, "RA_OF_ASC_NODE": 342.1428, "ARG_OF_PERICENTER": 33.5468, "MEAN_ANOMALY": 326.8156, "EPHEMERIS_TYPE": 0, "CLASSIFICATION_TYPE": "U", "NORAD_CAT_ID": 32052, "ELEMENT_SET_NO": 999, "REV_AT_EPOCH": 91624, "BSTAR": 7.8126576e-05, "MEAN_MOTION_DOT": 9.1e-07, "MEAN_MOTION_DDOT": 0}, "tle": {"line1": "1 32052U 07038A   25348.32113654  .00000091  00000+0  78127-4 0  9995", "line2": "2 32052  82.9804 342.1428 0039157  33.5468 326.8156 13.75149525916248"}}, "geometry": {"type": "Point", "coordinates": [164.23446462976784, -19.857325322485643]}}, {"type": "Feature", "properties": {"norad_id": 35635, "name": "COSMOS 2454", "group": "musson", "lat": -52.666391254091764, "lon": -3.695732468829368, "alt_km": 950.2890006127045, "timestamp": "2025-12-14T22:38:41.027851+00:00", "meta": {"OBJECT_NAME": "COSMOS 2454", "OBJECT_ID": "2009-039A", "EPOCH": "2025-12-14T01:21:42.703200", "MEAN_MOTION": 13.8992887, "ECCENTRICITY": 0.00204119, "INCLINATION": 82.9553, "RA_OF_ASC_NODE": 167.6466, "ARG_OF_PERICENTER": 70.2055, "MEAN_ANOMALY": 48.1896, "EPHEMERIS_TYPE": 0, "CLASSIFICATION_TYPE": "U", "NORAD_CAT_ID": 35635, "ELEMENT_SET_NO": 999, "REV_AT_EPOCH": 83168, "BSTAR": 7.8695816e-05, "MEAN_MOTION_DOT": 1.13e-06, "MEAN_MOTION_DDOT": 0}, "tle": {"line1": "1 35635U 09039A   25348.05674425  .00000113  00000+0  78696-4 0  9992", "line2": "2 35635  82.9553 167.6466 0020411  70.2055  48.1896 13.89928870831686"}}, "geometry": {"type": "Point", "coordinates": [-3.695732468829368, -52.666391254091764]}}, {"type": "Feature", "properties": {"norad_id": 36519, "name": "COSMOS 2463", "group": "musson", "lat": 51.056274470574344, "lon": -163.70004101503957, "alt_km": 1011.8445746685438, "timestamp": "2025-12-14T22:38:41.027861+00:00", "meta": {"OBJECT_NAME": "COSMOS 2463", "OBJECT_ID": "2010-017A", "EPOCH": "2025-12-14T04:49:29.061984", "MEAN_MOTION": 13.71649249, "ECCENTRICITY": 0.00347685, "INCLINATION": 82.9612, "RA_OF_ASC_NODE": 25.6389, "ARG_OF_PERICENTER": 283.8557, "MEAN_ANOMALY": 140.3023, "EPHEMERIS_TYPE": 0, "CLASSIFICATION_TYPE": "U", "NORAD_CAT_ID": 36519, "ELEMENT_SET_NO": 999, "REV_AT_EPOCH": 78257, "BSTAR": 4.9449785e-05, "MEAN_MOTION_DOT": 5.9e-07, "MEAN_MOTION_DDOT": 0}, "tle": {"line1": "1 36519U 10017A   25348.20103081  .00000059  00000+0  49450-4 0  9999", "line2": "2 36519  82.9612  25.6389 0034768 283.8557 140.3023 13.71649249782571"}}, "geometry": {"type": "Point", "coordinates": [-163.70004101503957, 51.056274470574344]}}]}